{"type": "FeatureCollection", "features": [ {"type": "Feature", "properties": {"norad_id": 33153, "name": "INTELSAT 25 (IS-25)", "group": "intelsat", "lat": 2.2477731779738956, "lon": 164.33980022966622, "alt_km": 35792.2765312266, "timestamp": "2025-12-26T06:43:29.174472+00:00", "meta": {"OBJECT_NAME": "INTELSAT 25 (IS-25)", "OBJECT_ID": "2008-034A", "EPOCH": "2025-12-25T09:29:36.384000", "MEAN_MOTION": 1.0027183, "ECCENTRICITY": 0.0004941, "INCLINATION": 2.2584, "RA_OF_ASC_NODE": 82.5122, "ARG_OF_PERICENTER": 189.7179, "MEAN_ANOMALY": 292.833, "EPHEMERIS_TYPE": 0, "CLASSIFICATION_TYPE": "U", "NORAD_CAT_ID": 33153, "ELEMENT_SET_NO": 999, "REV_AT_EPOCH": 6395, "BSTAR": 0, "MEAN_MOTION_DOT": -2.03e-06, "MEAN_MOTION_DDOT": 0}, "tle": {"line1": "1 33153U 08034A   25359.39556000 -.00000203  00000+0  00000+0 0  9996", "line2": "2 33153   2.2584  82.5122 0004941 189.7179 292.8330  1.00271830 63950"}}, "geometry": {"type": "Point", "coordinates": [164.33980022966622, 2.2477731779738956]}}, {"type": "Feature", "properties": {"norad_id": 33376, "name": "GALAXY 19 (G-19)", "group": "intelsat", "lat": 0.011122565530502967, "lon": 98.89123246480042, "alt_km": 35797.71504522207, "timestamp": "2025-12-26T06:43:29.174484+00:00", "meta": {"OBJECT_NAME": "GALAXY 19 (G-19)", "OBJECT_ID": "2008-045A", "EPOCH": "2025-12-25T10:42:38.666304", "MEAN_MOTION": 1.00271832, "ECCENTRICITY": 0.0002747, "INCLINATION": 0.0408, "RA_OF_ASC_NODE": 264.6224, "ARG_OF_PERICENTER": 16.378, "MEAN_ANOMALY": 236.8641, "EPHEMERIS_TYPE": 0, "CLASSIFICATION_TYPE": "U", "NORAD_CAT_ID": 33376, "ELEMENT_SET_NO": 999, "REV_AT_EPOCH": 6316, "BSTAR": 0, "MEAN_MOTION_DOT": -1.18e-06, "MEAN_MOTION_DDOT": 0}, "tle": {"line1": "1 33376U 08045A   25359.44628086 -.00000118  00000+0  00000+0 0  9990", "line2": "2 33376   0.0408 264.6224 0002747  16.3780 236.8641  1.00271832 63167"}}, "geometry": {"type": "Point", "coordinates": [98.89123246480042, 0.011122565530502967]}}, {"type": "Feature", "properties": {"norad_id": 35493, "name": "FM-5", "group": "intelsat", "lat": 0.015451670729549605, "lon": 109.72944759035627, "alt_km": 35784.69910400132, "timestamp": "2025-12-26T06:43:29.174496+00:00", "meta": {"OBJECT_NAME": "FM-5", "OBJECT_ID": "2009-034A", "EPOCH": "2025-12-25T21:13:02.840160", "MEAN_MOTION": 1.00269478, "ECCENTRICITY": 7.896e-05, "INCLINATION": 0.0148, "RA_OF_ASC_NODE": 303.8545, "ARG_OF_PERICENTER": 217.7513, "MEAN_ANOMALY": 165.1409, "EPHEMERIS_TYPE": 0, "CLASSIFICATION_TYPE": "U", "NORAD_CAT_ID": 35493, "ELEMENT_SET_NO": 999, "REV_AT_EPOCH": 4490, "BSTAR": 0, "MEAN_MOTION_DOT": -1.78e-06, "MEAN_MOTION_DDOT": 0}, "tle": {"line1": "1 35493U 09034A   25359.88406065 -.00000178  00000+0  00000+0 0  9996", "line2": "2 35493   0.0148 303.8545 0000789 217.7513 165.1409  1.00269478 44907"}}, "geometry": {"type": "Point", "coordinates": [109.72944759035627, 0.015451670729549605]}}, {"type": "Feature", "properties": {"norad_id": 36097, "name": "INTELSAT 14 (IS-14)", "group": "intelsat", "lat": 0.021819305072537314, "lon": 150.83919723486787, "alt_km": 35794.93137984208, "timestamp": "2025-12-26T06:43:29.174508+00:00", "meta": {"OBJECT_NAME": "INTELSAT 14 (IS-14)", "OBJECT_ID": "2009-064A", "EPOCH": "2025-12-24T11:10:22.140192", "MEAN_MOTION": 1.00269035, "ECCENTRICITY": 0.0002637, "INCLINATION": 0.013, "RA_OF_ASC_NODE": 11.8022, "ARG_OF_PERICENTER": 274.0942, "MEAN_ANOMALY": 289.9229, "EPHEMERIS_TYPE": 0, "CLASSIFICATION_TYPE": "U", "NORAD_CAT_ID": 36097, "ELEMENT_SET_NO": 999, "REV_AT_EPOCH": 5885, "BSTAR": 0, "MEAN_MOTION_DOT": -2.53e-06, "MEAN_MOTION_DDOT": 0}, "tle": {"line1": "1 36097U 09064A   25358.46553403 -.00000253  00000+0  00000+0 0  9996", "line2": "2 36097   0.0130  11.8022 0002637 274.0942 289.9229  1.00269035 58854"}}, "geometry": {"type": "Point", "coordinates": [150.83919723486787, 0.021819305072537314]}}, {"type": "Feature", "properties": {"norad_id": 36106, "name": "INTELSAT 15 (IS-15)", "group": "intelsat", "lat": -0.027667738997750616, "lon": -78.95872105077697, "alt_km": 35776.39112090309, "timestamp": "2025-12-26T06:43:29.174520+00:00", "meta": {"OBJECT_NAME": "INTELSAT 15 (IS-15)", "OBJECT_ID": "2009-067A", "EPOCH": "2025-12-25T21:36:38.577600", "MEAN_MOTION": 1.00270275, "ECCENTRICITY": 0.00024098, "INCLINATION": 0.0144, "RA_OF_ASC_NODE": 49.9659, "ARG_OF_PERICENTER": 237.0636, "MEAN_ANOMALY": 216.9386, "EPHEMERIS_TYPE": 0, "CLASSIFICATION_TYPE": "U", "NORAD_CAT_ID": 36106, "ELEMENT_SET_NO": 999, "REV_AT_EPOCH": 3949, "BSTAR": 0, "MEAN_MOTION_DOT": -1.63e-06, "MEAN_MOTION_DDOT": 0}, "tle": {"line1": "1 36106U 09067A   25359.90044650 -.00000163  00000+0  00000+0 0  9999", "line2": "2 36106   0.0144  49.9659 0002409 237.0636 216.9386  1.00270275 39495"}}, "geometry": {"type": "Point", "coordinates": [-78.95872105077697, -0.027667738997750616]}}, {"type": "Feature", "properties": {"norad_id": 36131, "name": "DIRECTV 12", "group": "intelsat", "lat": 0.0029246443082654385, "lon": 93.18927606601265, "alt_km": 35787.34515809562, "timestamp": "2025-12-26T06:43:29.174532+00:00", "meta": {"OBJECT_NAME": "DIRECTV 12", "OBJECT_ID": "2009-075A", "EPOCH": "2025-12-25T14:17:27.635136", "MEAN_MOTION": 1.00273448, "ECCENTRICITY": 5.26e-05, "INCLINATION": 0.0362, "RA_OF_ASC_NODE": 165.2057, "ARG_OF_PERICENTER": 147.3669, "MEAN_ANOMALY": 253.4343, "EPHEMERIS_TYPE": 0, "CLASSIFICATION_TYPE": "U", "NORAD_CAT_ID": 36131, "ELEMENT_SET_NO": 999, "REV_AT_EPOCH": 4481, "BSTAR": 0, "MEAN_MOTION_DOT": -8.2e-07, "MEAN_MOTION_DDOT": 0}, "tle": {"line1": "1 36131U 09075A   25359.59545874 -.00000082  00000+0  00000+0 0  9995", "line2": "2 36131   0.0362 165.2057 0000526 147.3669 253.4343  1.00273448 44812"}}, "geometry": {"type": "Point", "coordinates": [93.18927606601265, 0.0029246443082654385]}}, {"type": "Feature", "properties": {"norad_id": 36397, "name": "INTELSAT 16 (IS-16)", "group": "intelsat", "lat": 0.022573969337039135, "lon": 119.69897722361483, "alt_km": 35793.22101585059, "timestamp": "2025-12-26T06:43:29.174544+00:00", "meta": {"OBJECT_NAME": "INTELSAT 16 (IS-16)", "OBJECT_ID": "2010-006A", "EPOCH": "2025-12-25T04:32:09.998304", "MEAN_MOTION": 1.00272308, "ECCENTRICITY": 0.00019441, "INCLINATION": 0.0098, "RA_OF_ASC_NODE": 346.2974, "ARG_OF_PERICENTER": 284.2377, "MEAN_ANOMALY": 175.2747, "EPHEMERIS_TYPE": 0, "CLASSIFICATION_TYPE": "U", "NORAD_CAT_ID": 36397, "ELEMENT_SET_NO": 999, "REV_AT_EPOCH": 5791, "BSTAR": 0, "MEAN_MOTION_DOT": -2.23e-06, "MEAN_MOTION_DDOT": 0}, "tle": {"line1": "1 36397U 10006A   25359.18900461 -.00000223  00000+0  00000+0 0  9994", "line2": "2 36397   0.0098 346.2974 0001944 284.2377 175.2747  1.00272308 57911"}}, "geometry": {"type": "Point", "coordinates": [119.69897722361483, 0.022573969337039135]}}, {"type": "Feature", "properties": {"norad_id": 37185, "name": "XM-5", "group": "intelsat", "lat": 0.027572055963884966, "lon": 80.67718927212584, "alt_km": 35782.6881295561, "timestamp": "2025-12-26T06:43:29.174556+00:00", "meta": {"OBJECT_NAME": "XM-5", "OBJECT_ID": "2010-053A", "EPOCH": "2025-12-25T12:31:00.329376", "MEAN_MOTION": 1.0027234, "ECCENTRICITY": 0.0001895, "INCLINATION": 0.0637, "RA_OF_ASC_NODE": 269.6529, "ARG_OF_PERICENTER": 237.5328, "MEAN_ANOMALY": 19.6486, "EPHEMERIS_TYPE": 0, "CLASSIFICATION_TYPE": "U", "NORAD_CAT_ID": 37185, "ELEMENT_SET_NO": 999, "REV_AT_EPOCH": 5574, "BSTAR": 0, "MEAN_MOTION_DOT": -2e-08, "MEAN_MOTION_DDOT": 0}, "tle": {"line1": "1 37185U 10053A   25359.52153159 -.00000002  00000+0  00000+0 0  9999", "line2": "2 37185   0.0637 269.6529 0001895 237.5328  19.6486  1.00272340 55748"}}, "geometry": {"type": "Point", "coordinates": [80.67718927212584, 0.027572055963884966]}}, {"type": "Feature", "properties": {"norad_id": 37238, "name": "INTELSAT 17 (IS-17)", "group": "intelsat", "lat": -0.004288482872287506, "lon": -98.12818852504229, "alt_km": 35776.06328867726, "timestamp": "2025-12-26T06:43:29.174567+00:00", "meta": {"OBJECT_NAME": "INTELSAT 17 (IS-17)", "OBJECT_ID": "2010-065B", "EPOCH": "2025-12-25T22:03:33.893856", "MEAN_MOTION": 1.00271494, "ECCENTRICITY": 0.00027252, "INCLINATION": 0.0065, "RA_OF_ASC_NODE": 107.0593, "ARG_OF_PERICENTER": 183.9105, "MEAN_ANOMALY": 200.5883, "EPHEMERIS_TYPE": 0, "CLASSIFICATION_TYPE": "U", "NORAD_CAT_ID": 37238, "ELEMENT_SET_NO": 999, "REV_AT_EPOCH": 5151, "BSTAR": 0, "MEAN_MOTION_DOT": 2e-07, "MEAN_MOTION_DDOT": 0}, "tle": {"line1": "1 37238U 10065B   25359.91914229  .00000020  00000+0  00000+0 0  9996", "line2": "2 37238   0.0065 107.0593 0002725 183.9105 200.5883  1.00271494 51510"}}, "geometry": {"type": "Point", "coordinates": [-98.12818852504229, -0.004288482872287506]}}, {"type": "Feature", "properties": {"norad_id": 37392, "name": "INTELSAT 28 (IS-28)", "group": "intelsat", "lat": 1.3431965942848934, "lon": 164.14522739028448, "alt_km": 35791.00680641569, "timestamp": "2025-12-26T06:43:29.174579+00:00", "meta": {"OBJECT_NAME": "INTELSAT 28 (IS-28)", "OBJECT_ID": "2011-016A", "EPOCH": "2025-12-25T07:46:46.230816", "MEAN_MOTION": 1.00271849, "ECCENTRICITY": 0.0003772, "INCLINATION": 1.3552, "RA_OF_ASC_NODE": 84.9189, "ARG_OF_PERICENTER": 187.6126, "MEAN_ANOMALY": 266.5422, "EPHEMERIS_TYPE": 0, "CLASSIFICATION_TYPE": "U", "NORAD_CAT_ID": 37392, "ELEMENT_SET_NO": 999, "REV_AT_EPOCH": 5154, "BSTAR": 0, "MEAN_MOTION_DOT": -2.04e-06, "MEAN_MOTION_DDOT": 0}, "tle": {"line1": "1 37392U 11016A   25359.32414619 -.00000204  00000+0  00000+0 0  9992", "line2": "2 37392   1.3552  84.9189 0003772 187.6126 266.5422  1.00271849 51545"}}, "geometry": {"type": "Point", "coordinates": [164.14522739028448, 1.3431965942848934]}}]}